{
  "type": "FeatureCollection",
  "features": [
    {
      "type": "Feature",
      "properties": {
        "norad_id": 64694,
        "name": "GOSAT-GW (IBUKI GW)",
        "group": "resource",
        "lat": 75.27780008573923,
        "lon": 148.2650658319006,
        "alt_km": 660.7673907200606,
        "timestamp": "2025-12-26T10:30:49.917376+00:00",
        "meta_object_name": "GOSAT-GW (IBUKI GW)",
        "meta_object_id": "2025-141A",
        "meta_epoch": "2025-12-26T03:30:14.138208",
        "meta_mean_motion": 14.67561542,
        "meta_eccentricity": 0.0001427,
        "meta_inclination": 98.044,
        "meta_ra_of_asc_node": 295.4168,
        "meta_arg_of_pericenter": 82.3875,
        "meta_mean_anomaly": 277.7492,
        "meta_ephemeris_type": 0,
        "meta_classification_type": "U",
        "meta_norad_cat_id": 64694,
        "meta_element_set_no": 999,
        "meta_rev_at_epoch": 2646,
        "meta_bstar": 0.00018536,
        "meta_mean_motion_dot": 1.004e-05,
        "meta_mean_motion_ddot": 0,
        "tle_line1": "1 64694U 25141A   25360.14599697  .00001004  00000+0  18536-3 0  9998",
        "tle_line2": "2 64694  98.0440 295.4168 0001427  82.3875 277.7492 14.67561542 26465"
      },
      "geometry": {
        "type": "Point",
        "coordinates": [
          148.2650658319006,
          75.27780008573923
        ]
      }
    },
    {
      "type": "Feature",
      "properties": {
        "norad_id": 64876,
        "name": "IONOSFERA-M 3",
        "group": "resource",
        "lat": -5.888018122259027,
        "lon": -37.19017586092086,
        "alt_km": 823.1827955617237,
        "timestamp": "2025-12-26T10:30:49.917386+00:00",
        "meta_object_name": "IONOSFERA-M 3",
        "meta_object_id": "2025-155A",
        "meta_epoch": "2025-12-26T03:47:03.408576",
        "meta_mean_motion": 14.21444231,
        "meta_eccentricity": 0.0001807,
        "meta_inclination": 98.5801,
        "meta_ra_of_asc_node": 321.6452,
        "meta_arg_of_pericenter": 38.3682,
        "meta_mean_anomaly": 321.7624,
        "meta_ephemeris_type": 0,
        "meta_classification_type": "U",
        "meta_norad_cat_id": 64876,
        "meta_element_set_no": 999,
        "meta_rev_at_epoch": 2182,
        "meta_bstar": 6.0795e-05,
        "meta_mean_motion_dot": 9e-07,
        "meta_mean_motion_ddot": 0,
        "tle_line1": "1 64876U 25155A   25360.15767834  .00000090  00000+0  60795-4 0  9995",
        "tle_line2": "2 64876  98.5801 321.6452 0001807  38.3682 321.7624 14.21444231 21827"
      },
      "geometry": {
        "type": "Point",
        "coordinates": [
          -37.19017586092086,
          -5.888018122259027
        ]
      }
    },
    {
      "type": "Feature",
      "properties": {
        "norad_id": 64877,
        "name": "IONOSFERA-M 4",
        "group": "resource",
        "lat": 4.925584820146527,
        "lon": 142.5825436002775,
        "alt_km": 823.23490712087,
        "timestamp": "2025-12-26T10:30:49.917396+00:00",
        "meta_object_name": "IONOSFERA-M 4",
        "meta_object_id": "2025-155B",
        "meta_epoch": "2025-12-26T04:37:32.240064",
        "meta_mean_motion": 14.2144537,
        "meta_eccentricity": 0.000125,
        "meta_inclination": 98.5802,
        "meta_ra_of_asc_node": 321.5986,
        "meta_arg_of_pericenter": 51.0399,
        "meta_mean_anomaly": 309.089,
        "meta_ephemeris_type": 0,
        "meta_classification_type": "U",
        "meta_norad_cat_id": 64877,
        "meta_element_set_no": 999,
        "meta_rev_at_epoch": 2182,
        "meta_bstar": 5.8514e-05,
        "meta_mean_motion_dot": 8.5e-07,
        "meta_mean_motion_ddot": 0,
        "tle_line1": "1 64877U 25155B   25360.19273426  .00000085  00000+0  58514-4 0  9999",
        "tle_line2": "2 64877  98.5802 321.5986 0001250  51.0399 309.0890 14.21445370 21828"
      },
      "geometry": {
        "type": "Point",
        "coordinates": [
          142.5825436002775,
          4.925584820146527
        ]
      }
    },
    {
      "type": "Feature",
      "properties": {
        "norad_id": 64899,
        "name": "MICROCARB",
        "group": "resource",
        "lat": -57.357306434093545,
        "lon": 88.24672022520703,
        "alt_km": 673.3406992523087,
        "timestamp": "2025-12-26T10:30:49.917406+00:00",
        "meta_object_name": "MICROCARB",
        "meta_object_id": "2025-156A",
        "meta_epoch": "2025-12-26T04:15:11.979072",
        "meta_mean_motion": 14.72078134,
        "meta_eccentricity": 0.0017662,
        "meta_inclination": 98.0009,
        "meta_ra_of_asc_node": 75.3064,
        "meta_arg_of_pericenter": 104.5571,
        "meta_mean_anomaly": 255.7596,
        "meta_ephemeris_type": 0,
        "meta_classification_type": "U",
        "meta_norad_cat_id": 64899,
        "meta_element_set_no": 999,
        "meta_rev_at_epoch": 2251,
        "meta_bstar": 0.00011937,
        "meta_mean_motion_dot": 7.02e-06,
        "meta_mean_motion_ddot": 0,
        "tle_line1": "1 64899U 25156A   25360.17722198  .00000702  00000+0  11937-3 0  9990",
        "tle_line2": "2 64899  98.0009  75.3064 0017662 104.5571 255.7596 14.72078134 22510"
      },
      "geometry": {
        "type": "Point",
        "coordinates": [
          88.24672022520703,
          -57.357306434093545
        ]
      }
    },
    {
      "type": "Feature",
      "properties": {
        "norad_id": 64900,
        "name": "CO3D 3",
        "group": "resource",
        "lat": -12.970280163869516,
        "lon": -105.11435724048415,
        "alt_km": 510.43276031272853,
        "timestamp": "2025-12-26T10:30:49.917416+00:00",
        "meta_object_name": "CO3D 3",
        "meta_object_id": "2025-156B",
        "meta_epoch": "2025-12-26T04:55:42.693600",
        "meta_mean_motion": 15.20197634,
        "meta_eccentricity": 0.0001336,
        "meta_inclination": 97.4344,
        "meta_ra_of_asc_node": 76.3797,
        "meta_arg_of_pericenter": 64.5941,
        "meta_mean_anomaly": 295.5433,
        "meta_ephemeris_type": 0,
        "meta_classification_type": "U",
        "meta_norad_cat_id": 64900,
        "meta_element_set_no": 999,
        "meta_rev_at_epoch": 2325,
        "meta_bstar": 1.8193e-05,
        "meta_mean_motion_dot": 3.26e-06,
        "meta_mean_motion_ddot": 0,
        "tle_line1": "1 64900U 25156B   25360.20535525  .00000326  00000+0  18193-4 0  9997",
        "tle_line2": "2 64900  97.4344  76.3797 0001336  64.5941 295.5433 15.20197634 23254"
      },
      "geometry": {
        "type": "Point",
        "coordinates": [
          -105.11435724048415,
          -12.970280163869516
        ]
      }
    },
    {
      "type": "Feature",
      "properties": {
        "norad_id": 64901,
        "name": "CO3D 4",
        "group": "resource",
        "lat": -12.114655199484169,
        "lon": -104.99730032762143,
        "alt_km": 509.0888550759,
        "timestamp": "2025-12-26T10:30:49.917426+00:00",
        "meta_object_name": "CO3D 4",
        "meta_object_id": "2025-156C",
        "meta_epoch": "2025-12-26T03:21:09.043200",
        "meta_mean_motion": 15.20191705,
        "meta_eccentricity": 0.0001369,
        "meta_inclination": 97.4337,
        "meta_ra_of_asc_node": 76.3146,
        "meta_arg_of_pericenter": 149.5803,
        "meta_mean_anomaly": 210.5511,
        "meta_ephemeris_type": 0,
        "meta_classification_type": "U",
        "meta_norad_cat_id": 64901,
        "meta_element_set_no": 999,
        "meta_rev_at_epoch": 2324,
        "meta_bstar": 0.00022855,
        "meta_mean_motion_dot": 4.882e-05,
        "meta_mean_motion_ddot": 0,
        "tle_line1": "1 64901U 25156C   25360.13968800  .00004882  00000+0  22855-3 0  9996",
        "tle_line2": "2 64901  97.4337  76.3146 0001369 149.5803 210.5511 15.20191705 23248"
      },
      "geometry": {
        "type": "Point",
        "coordinates": [
          -104.99730032762143,
          -12.114655199484169
        ]
      }
    },
    {
      "type": "Feature",
      "properties": {
        "norad_id": 64902,
        "name": "CO3D 2",
        "group": "resource",
        "lat": 14.229053536838034,
        "lon": 74.61006372396105,
        "alt_km": 505.91452342961657,
        "timestamp": "2025-12-26T10:30:49.917437+00:00",
        "meta_object_name": "CO3D 2",
        "meta_object_id": "2025-156D",
        "meta_epoch": "2025-12-26T04:07:54.916032",
        "meta_mean_motion": 15.20197422,
        "meta_eccentricity": 7.86e-05,
        "meta_inclination": 97.434,
        "meta_ra_of_asc_node": 76.2454,
        "meta_arg_of_pericenter": 60.3399,
        "meta_mean_anomaly": 299.7915,
        "meta_ephemeris_type": 0,
        "meta_classification_type": "U",
        "meta_norad_cat_id": 64902,
        "meta_element_set_no": 999,
        "meta_rev_at_epoch": 2324,
        "meta_bstar": 0.00013911,
        "meta_mean_motion_dot": 2.945e-05,
        "meta_mean_motion_ddot": 0,
        "tle_line1": "1 64902U 25156D   25360.17216338  .00002945  00000+0  13911-3 0  9994",
        "tle_line2": "2 64902  97.4340  76.2454 0000786  60.3399 299.7915 15.20197422 23245"
      },
      "geometry": {
        "type": "Point",
        "coordinates": [
          74.61006372396105,
          14.229053536838034
        ]
      }
    }
  ]
}